{
  "type": "FeatureCollection",
  "features": [
    {
      "type": "Feature",
      "properties": {
        "norad_id": 34540,
        "name": "IRIDIUM 33 DEB",
        "group": "iridium-33-debris",
        "lat": -41.687752658032885,
        "lon": 128.5027428204762,
        "alt_km": 648.5343780749517,
        "timestamp": "2025-12-17T23:38:07.238754+00:00",
        "meta_object_name": "IRIDIUM 33 DEB",
        "meta_object_id": "1997-051JH",
        "meta_epoch": "2025-12-17T15:18:40.192416",
        "meta_mean_motion": 14.75421106,
        "meta_eccentricity": 0.0017206,
        "meta_inclination": 86.31,
        "meta_ra_of_asc_node": 305.3665,
        "meta_arg_of_pericenter": 142.1543,
        "meta_mean_anomaly": 38.3017,
        "meta_ephemeris_type": 0,
        "meta_classification_type": "U",
        "meta_norad_cat_id": 34540,
        "meta_element_set_no": 999,
        "meta_rev_at_epoch": 89093,
        "meta_bstar": 0.0012214614,
        "meta_mean_motion_dot": 8.341e-05,
        "meta_mean_motion_ddot": 0,
        "tle_line1": "1 34540U 97051JH  25351.63796519  .00008341  00000+0  12215-2 0  9998",
        "tle_line2": "2 34540  86.3100 305.3665 0017206 142.1543  38.3017 14.75421106890932"
      },
      "geometry": {
        "type": "Point",
        "coordinates": [
          128.5027428204762,
          -41.687752658032885
        ]
      }
    },
    {
      "type": "Feature",
      "properties": {
        "norad_id": 34648,
        "name": "IRIDIUM 33 DEB",
        "group": "iridium-33-debris",
        "lat": -64.00062019615363,
        "lon": 107.26447435218567,
        "alt_km": 757.1667459673235,
        "timestamp": "2025-12-17T23:38:07.238764+00:00",
        "meta_object_name": "IRIDIUM 33 DEB",
        "meta_object_id": "1997-051JZ",
        "meta_epoch": "2025-12-17T05:27:16.397568",
        "meta_mean_motion": 14.11635148,
        "meta_eccentricity": 0.01813922,
        "meta_inclination": 86.3906,
        "meta_ra_of_asc_node": 280.1344,
        "meta_arg_of_pericenter": 284.869,
        "meta_mean_anomaly": 73.2466,
        "meta_ephemeris_type": 0,
        "meta_classification_type": "U",
        "meta_norad_cat_id": 34648,
        "meta_element_set_no": 999,
        "meta_rev_at_epoch": 85024,
        "meta_bstar": 0.0057584356,
        "meta_mean_motion_dot": 0.00012245,
        "meta_mean_motion_ddot": 0,
        "tle_line1": "1 34648U 97051JZ  25351.22727312  .00012245  00000+0  57584-2 0  9993",
        "tle_line2": "2 34648  86.3906 280.1344 0181392 284.8690  73.2466 14.11635148850243"
      },
      "geometry": {
        "type": "Point",
        "coordinates": [
          107.26447435218567,
          -64.00062019615363
        ]
      }
    },
    {
      "type": "Feature",
      "properties": {
        "norad_id": 34651,
        "name": "IRIDIUM 33 DEB",
        "group": "iridium-33-debris",
        "lat": -33.10742132310921,
        "lon": -39.224312111701586,
        "alt_km": 719.3889373651346,
        "timestamp": "2025-12-17T23:38:07.238774+00:00",
        "meta_object_name": "IRIDIUM 33 DEB",
        "meta_object_id": "1997-051KC",
        "meta_epoch": "2025-12-17T09:10:02.790336",
        "meta_mean_motion": 14.25892739,
        "meta_eccentricity": 0.01422319,
        "meta_inclination": 86.2826,
        "meta_ra_of_asc_node": 138.6025,
        "meta_arg_of_pericenter": 189.2398,
        "meta_mean_anomaly": 170.6175,
        "meta_ephemeris_type": 0,
        "meta_classification_type": "U",
        "meta_norad_cat_id": 34651,
        "meta_element_set_no": 999,
        "meta_rev_at_epoch": 85962,
        "meta_bstar": 0.0024534295,
        "meta_mean_motion_dot": 6.516e-05,
        "meta_mean_motion_ddot": 0,
        "tle_line1": "1 34651U 97051KC  25351.38197674  .00006516  00000+0  24534-2 0  9999",
        "tle_line2": "2 34651  86.2826 138.6025 0142231 189.2398 170.6175 14.25892739859628"
      },
      "geometry": {
        "type": "Point",
        "coordinates": [
          -39.224312111701586,
          -33.10742132310921
        ]
      }
    },
    {
      "type": "Feature",
      "properties": {
        "norad_id": 34652,
        "name": "IRIDIUM 33 DEB",
        "group": "iridium-33-debris",
        "lat": -46.13055424989821,
        "lon": 161.49347146359165,
        "alt_km": 682.3400773550402,
        "timestamp": "2025-12-17T23:38:07.238785+00:00",
        "meta_object_name": "IRIDIUM 33 DEB",
        "meta_object_id": "1997-051KD",
        "meta_epoch": "2025-12-17T10:09:28.253088",
        "meta_mean_motion": 14.62102279,
        "meta_eccentricity": 0.00256194,
        "meta_inclination": 86.3313,
        "meta_ra_of_asc_node": 337.9164,
        "meta_arg_of_pericenter": 281.1388,
        "meta_mean_anomaly": 231.348,
        "meta_ephemeris_type": 0,
        "meta_classification_type": "U",
        "meta_norad_cat_id": 34652,
        "meta_element_set_no": 999,
        "meta_rev_at_epoch": 88552,
        "meta_bstar": 0.00074941981,
        "meta_mean_motion_dot": 3.803e-05,
        "meta_mean_motion_ddot": 0,
        "tle_line1": "1 34652U 97051KD  25351.42324367  .00003803  00000+0  74942-3 0  9991",
        "tle_line2": "2 34652  86.3313 337.9164 0025619 281.1388 231.3480 14.62102279885526"
      },
      "geometry": {
        "type": "Point",
        "coordinates": [
          161.49347146359165,
          -46.13055424989821
        ]
      }
    },
    {
      "type": "Feature",
      "properties": {
        "norad_id": 34690,
        "name": "IRIDIUM 33 DEB",
        "group": "iridium-33-debris",
        "lat": -42.425240649451744,
        "lon": 31.393547581095863,
        "alt_km": 711.4937720631779,
        "timestamp": "2025-12-17T23:38:07.238795+00:00",
        "meta_object_name": "IRIDIUM 33 DEB",
        "meta_object_id": "1997-051KM",
        "meta_epoch": "2025-12-17T09:02:29.948064",
        "meta_mean_motion": 14.55112856,
        "meta_eccentricity": 0.00102781,
        "meta_inclination": 86.378,
        "meta_ra_of_asc_node": 34.9765,
        "meta_arg_of_pericenter": 14.3061,
        "meta_mean_anomaly": 0.0847,
        "meta_ephemeris_type": 0,
        "meta_classification_type": "U",
        "meta_norad_cat_id": 34690,
        "meta_element_set_no": 999,
        "meta_rev_at_epoch": 88162,
        "meta_bstar": 0.00032988502,
        "meta_mean_motion_dot": 1.445e-05,
        "meta_mean_motion_ddot": 0,
        "tle_line1": "1 34690U 97051KM  25351.37673551  .00001445  00000+0  32989-3 0  9994",
        "tle_line2": "2 34690  86.3780  34.9765 0010278  14.3061   0.0847 14.55112856881625"
      },
      "geometry": {
        "type": "Point",
        "coordinates": [
          31.393547581095863,
          -42.425240649451744
        ]
      }
    },
    {
      "type": "Feature",
      "properties": {
        "norad_id": 34693,
        "name": "IRIDIUM 33 DEB",
        "group": "iridium-33-debris",
        "lat": -48.634842256183035,
        "lon": -62.99265010260378,
        "alt_km": 485.375796915896,
        "timestamp": "2025-12-17T23:38:07.238805+00:00",
        "meta_object_name": "IRIDIUM 33 DEB",
        "meta_object_id": "1997-051KQ",
        "meta_epoch": "2025-12-17T03:29:01.779936",
        "meta_mean_motion": 15.28993867,
        "meta_eccentricity": 0.0012502,
        "meta_inclination": 86.3047,
        "meta_ra_of_asc_node": 301.6344,
        "meta_arg_of_pericenter": 45.3487,
        "meta_mean_anomaly": 327.2881,
        "meta_ephemeris_type": 0,
        "meta_classification_type": "U",
        "meta_norad_cat_id": 34693,
        "meta_element_set_no": 999,
        "meta_rev_at_epoch": 88982,
        "meta_bstar": 0.0037800508,
        "meta_mean_motion_dot": 0.00107985,
        "meta_mean_motion_ddot": 0,
        "tle_line1": "1 34693U 97051KQ  25351.14515949  .00107985  00000+0  37801-2 0  9991",
        "tle_line2": "2 34693  86.3047 301.6344 0012502  45.3487 327.2881 15.28993867889821"
      },
      "geometry": {
        "type": "Point",
        "coordinates": [
          -62.99265010260378,
          -48.634842256183035
        ]
      }
    },
    {
      "type": "Feature",
      "properties": {
        "norad_id": 34696,
        "name": "IRIDIUM 33 DEB",
        "group": "iridium-33-debris",
        "lat": -71.7158484631045,
        "lon": 13.431309148253,
        "alt_km": 722.0712317667421,
        "timestamp": "2025-12-17T23:38:07.238816+00:00",
        "meta_object_name": "IRIDIUM 33 DEB",
        "meta_object_id": "1997-051KT",
        "meta_epoch": "2025-12-17T09:30:23.079744",
        "meta_mean_motion": 14.6532937,
        "meta_eccentricity": 0.00740014,
        "meta_inclination": 86.1851,
        "meta_ra_of_asc_node": 25.356,
        "meta_arg_of_pericenter": 151.7649,
        "meta_mean_anomaly": 272.0645,
        "meta_ephemeris_type": 0,
        "meta_classification_type": "U",
        "meta_norad_cat_id": 34696,
        "meta_element_set_no": 999,
        "meta_rev_at_epoch": 86741,
        "meta_bstar": 0.0031909268,
        "meta_mean_motion_dot": 0.00017981,
        "meta_mean_motion_ddot": 0,
        "tle_line1": "1 34696U 97051KT  25351.39610046  .00017981  00000+0  31909-2 0  9994",
        "tle_line2": "2 34696  86.1851  25.3560 0074001 151.7649 272.0645 14.65329370867417"
      },
      "geometry": {
        "type": "Point",
        "coordinates": [
          13.431309148253,
          -71.7158484631045
        ]
      }
    }
  ]
}